NORAD_CAT_ID,OBJECT_NAME,OBJECT_TYPE,EPOCH,MEAN_MOTION,ECCENTRICITY,INCLINATION,RA_OF_ASC_NODE,ARG_OF_PERICENTER,MEAN_ANOMALY,BSTAR,MEAN_MOTION_DOT,MEAN_MOTION_DDOT,TLE_LINE0,TLE_LINE1,TLE_LINE2,SEMIMAJOR_AXIS,PERIOD,APOGEE,PERIGEE,DECAYED
50849.0,STARLINK-3311,PAYLOAD,2023-12-21 21:03:28,15.08827065,0.0001392,53.2154,210.0285,84.0891,276.026,0.00029287,4.375e-05,0.0,0 STARLINK-3311,1 50849U 22001AY  23355.87741557  .00004375  00000-0  29287-3 0  9993,2 50849  53.2154 210.0285 0001392  84.0891 276.0260 15.08827065108162,6917.92,95.438,540.748,538.822,0.0
50849.0,STARLINK-3311,PAYLOAD,2023-12-22 19:18:52,15.08840296,0.0001382,53.2155,205.8468,88.1712,271.9438,1.1094e-05,-1.11e-06,0.0,0 STARLINK-3311,1 50849U 22001AY  23356.80477470 -.00000111  00000-0  11094-4 0  9990,2 50849  53.2155 205.8468 0001382  88.1712 271.9438 15.08840296108302,6917.879,95.438,540.701,538.788,0.0
50849.0,STARLINK-3311,PAYLOAD,2023-12-23 14:23:30,15.08837674,0.0001541,53.2162,202.2861,108.2412,251.8748,4.7441e-05,4.67e-06,0.0,0 STARLINK-3311,1 50849U 22001AY  23357.59965517  .00000467  00000-0  47441-4 0  9999,2 50849  53.2162 202.2861 0001541 108.2412 251.8748 15.08837674108426,6917.887,95.438,540.819,538.686,0.0
50849.0,STARLINK-3311,PAYLOAD,2023-12-23 19:09:39,15.08841562,0.0001403,53.2156,201.3951,101.2837,258.8313,7.1709e-05,8.54e-06,0.0,0 STARLINK-3311,1 50849U 22001AY  23357.79837242  .00000854  00000-0  71709-4 0  9998,2 50849  53.2156 201.3951 0001403 101.2837 258.8313 15.08841562109652,6917.876,95.437,540.711,538.77,0.0
50849.0,STARLINK-3311,PAYLOAD,2023-12-23 20:45:02,15.08842151,0.00014,53.2156,201.0977,101.2539,258.8611,7.5602e-05,9.16e-06,0.0,0 STARLINK-3311,1 50849U 22001AY  23357.86461200  .00000916  00000-0  75602-4 0  9998,2 50849  53.2156 201.0977 0001400 101.2539 258.8611 15.08842151108467,6917.874,95.437,540.707,538.77,0.0
50849.0,STARLINK-3311,PAYLOAD,2023-12-24 14:14:17,15.08836494,0.0001381,53.2156,197.827,98.2012,261.9136,6.726e-05,7.83e-06,0.0,0 STARLINK-3311,1 50849U 22001AY  23358.59325624  .00000783  00000-0  67260-4 0  9991,2 50849  53.2156 197.8270 0001381  98.2012 261.9136 15.08836494108576,6917.891,95.438,540.711,538.801,0.0
50849.0,STARLINK-3311,PAYLOAD,2023-12-24 20:35:49,15.08839631,0.0001369,53.2158,196.6372,98.6311,261.4836,8.7795e-05,1.11e-05,0.0,0 STARLINK-3311,1 50849U 22001AY  23358.85821401  .00001110  00000-0  87795-4 0  9994,2 50849  53.2158 196.6372 0001369  98.6311 261.4836 15.08839631109816,6917.882,95.438,540.694,538.799,0.0
50849.0,STARLINK-3311,PAYLOAD,2023-12-24 23:46:35,15.0884026,0.0001369,53.2158,196.0425,98.4464,261.6684,9.0717e-05,1.156e-05,0.0,0 STARLINK-3311,1 50849U 22001AY  23358.99069382  .00001156  00000-0  90717-4 0  9999,2 50849  53.2158 196.0425 0001369  98.4464 261.6684 15.08840260108638,6917.88,95.438,540.692,538.798,0.0
50849.0,STARLINK-3311,PAYLOAD,2023-12-25 18:51:14,15.08836789,0.0001371,53.2158,192.4732,102.0343,258.0803,-7.2943e-06,-4.04e-06,0.0,0 STARLINK-3311,1 50849U 22001AY  23359.78557960 -.00000404  00000-0 -72943-5 0  9990,2 50849  53.2158 192.4732 0001371 102.0343 258.0803 15.08836789109950,6917.89,95.438,540.704,538.807,0.0
50849.0,STARLINK-3311,PAYLOAD,2023-12-25 20:26:37,15.088376,0.0001342,53.2159,192.176,98.3226,261.7919,-2.2427e-06,-3.24e-06,0.0,0 STARLINK-3311,1 50849U 22001AY  23359.85181901 -.00000324  00000-0 -22427-5 0  9999,2 50849  53.2159 192.1760 0001342  98.3226 261.7919 15.08837600108764,6917.888,95.438,540.681,538.824,0.0
50849.0,STARLINK-3311,PAYLOAD,2023-12-25 23:37:23,15.08836631,0.0001326,53.2159,191.5817,95.9431,264.1712,-1.1159e-05,-4.65e-06,0.0,0 STARLINK-3311,1 50849U 22001AY  23359.98430014 -.00000465  00000-0 -11159-4 0  9990,2 50849  53.2159 191.5817 0001326  95.9431 264.1712 15.08836631108786,6917.891,95.438,540.673,538.838,0.0
50849.0,STARLINK-3311,PAYLOAD,2023-12-26 20:17:23,15.0884354,0.0001292,53.2162,187.7158,88.7989,271.3151,5.0429e-05,5.15e-06,0.0,0 STARLINK-3311,1 50849U 22001AY  23360.84541462  .00000515  00000-0  50429-4 0  9994,2 50849  53.2162 187.7158 0001292  88.7989 271.3151 15.08843540110119,6917.87,95.437,540.628,538.841,0.0
50849.0,STARLINK-3311,PAYLOAD,2023-12-27 21:43:34,15.08840781,0.0001404,53.2164,182.9585,77.8705,282.2445,8.5494e-05,1.073e-05,0.0,0 STARLINK-3311,1 50849U 22001AY  23361.90525621  .00001073  00000-0  85494-4 0  9991,2 50849  53.2164 182.9585 0001404  77.8705 282.2445 15.08840781109076,6917.878,95.438,540.714,538.772,0.0
50849.0,STARLINK-3311,PAYLOAD,2023-12-28 12:02:02,15.08840351,0.000138,53.2162,180.2808,84.5625,275.5524,2.4365e-05,1e-06,0.0,0 STARLINK-3311,1 50849U 22001AY  23362.50141790  .00000100  00000-0  24365-4 0  9999,2 50849  53.2162 180.2808 0001380  84.5625 275.5524 15.08840351109168,6917.879,95.438,540.699,538.79,0.0
50849.0,STARLINK-3311,PAYLOAD,2023-12-28 18:23:34,15.08842338,0.0001392,53.2163,179.0934,84.6507,275.4644,3.6398e-05,2.91e-06,0.0,0 STARLINK-3311,1 50849U 22001AY  23362.76637577  .00000291  00000-0  36398-4 0  9990,2 50849  53.2163 179.0934 0001392  84.6507 275.4644 15.08842338109202,6917.873,95.437,540.701,538.775,0.0
50849.0,STARLINK-3311,PAYLOAD,2023-12-29 18:14:21,15.08839867,0.0001414,53.2166,174.6331,102.3568,257.7583,1.5078e-05,-4.8e-07,0.0,0 STARLINK-3311,1 50849U 22001AY  23363.75997617 -.00000048  00000-0  15078-4 0  9997,2 50849  53.2166 174.6331 0001414 102.3568 257.7583 15.08839867110555,6917.881,95.438,540.724,538.768,0.0
50849.0,STARLINK-3311,PAYLOAD,2023-12-30 14:54:22,15.08838732,0.0001403,53.2165,170.7677,107.2087,252.9058,2.4078e-05,9.5e-07,0.0,0 STARLINK-3311,1 50849U 22001AY  23364.62109634  .00000095  00000-0  24078-4 0  9999,2 50849  53.2165 170.7677 0001403 107.2087 252.9058 15.08838732109486,6917.884,95.438,540.72,538.779,0.0
50849.0,STARLINK-3311,PAYLOAD,2023-12-30 18:05:08,15.08841525,0.0001282,53.2161,170.1717,92.5848,267.5291,2.9843e-05,1.87e-06,0.0,0 STARLINK-3311,1 50849U 22001AY  23364.75357486  .00000187  00000-0  29843-4 0  9990,2 50849  53.2161 170.1717 0001282  92.5848 267.5291 15.08841525109505,6917.876,95.437,540.628,538.854,0.0
50849.0,STARLINK-3311,PAYLOAD,2023-12-31 09:59:00,15.08834263,0.0001241,53.2161,167.1962,97.5612,262.5521,-7.1776e-06,-4.02e-06,0.0,0 STARLINK-3311,1 50849U 22001AY  23365.41598148 -.00000402  00000-0 -71776-5 0  9991,2 50849  53.2161 167.1962 0001241  97.5612 262.5521 15.08834263110809,6917.898,95.438,540.621,538.904,0.0
50849.0,STARLINK-3311,PAYLOAD,2023-12-31 17:55:56,15.08837114,0.0001284,53.2164,165.71,97.4998,262.614,2.1622e-05,5.6e-07,0.0,0 STARLINK-3311,1 50849U 22001AY  23365.74717937  .00000056  00000-0  21622-4 0  9993,2 50849  53.2164 165.7100 0001284  97.4998 262.6140 15.08837114109650,6917.889,95.438,540.642,538.866,0.0
50849.0,STARLINK-3311,PAYLOAD,2024-01-01 14:35:57,15.08786424,0.0001477,53.2166,161.8448,95.5622,264.5539,0.00061182,9.448e-05,0.0,0 STARLINK-3311,1 50849U 22001AY  24001.60830829  .00009448  00000-0  61182-3 0  9990,2 50849  53.2166 161.8448 0001477  95.5622 264.5539 15.08786424109785,6918.044,95.441,540.931,538.887,0.0
50849.0,STARLINK-3311,PAYLOAD,2024-01-01 16:11:21,15.0878886,0.0001471,53.2166,161.5474,96.2264,263.8896,0.00059641,9.203e-05,0.0,0 STARLINK-3311,1 50849U 22001AY  24001.67454930  .00009203  00000-0  59641-3 0  9998,2 50849  53.2166 161.5474 0001471  96.2264 263.8896 15.08788860110994,6918.037,95.441,540.919,538.884,0.0
50849.0,STARLINK-3311,PAYLOAD,2024-01-01 20:57:30,15.08825676,0.0001311,53.2167,160.655,97.6189,262.4952,0.00015256,2.14e-05,0.0,0 STARLINK-3311,1 50849U 22001AY  24001.87326552  .00002140  00000-0  15256-3 0  9995,2 50849  53.2167 160.6550 0001311  97.6189 262.4952 15.08825676111024,6917.924,95.438,540.696,538.882,0.0
50849.0,STARLINK-3311,PAYLOAD,2024-01-02 14:26:44,15.08834379,0.00013,53.2163,157.3842,103.4527,256.661,4.4767e-05,4.25e-06,0.0,0 STARLINK-3311,1 50849U 22001AY  24002.60190603  .00000425  00000-0  44767-4 0  9997,2 50849  53.2163 157.3842 0001300 103.4527 256.6610 15.08834379109930,6917.898,95.438,540.662,538.863,0.0
50849.0,STARLINK-3311,PAYLOAD,2024-01-02 17:37:30,15.08840506,0.0001566,53.2165,156.7893,97.6935,262.4235,1.5608e-05,-4e-07,0.0,0 STARLINK-3311,1 50849U 22001AY  24002.73438396 -.00000040  00000-0  15608-4 0  9991,2 50849  53.2165 156.7893 0001566  97.6935 262.4235 15.08840506111156,6917.879,95.438,540.827,538.661,0.0
50849.0,STARLINK-3311,PAYLOAD,2024-01-03 14:17:31,15.08835903,0.0001264,53.2165,152.9238,92.896,267.2177,3.8849e-05,3.3e-06,0.0,0 STARLINK-3311,1 50849U 22001AY  24003.59550793  .00000330  00000-0  38849-4 0  9995,2 50849  53.2165 152.9238 0001264  92.8960 267.2177 15.08835903110081,6917.893,95.438,540.632,538.883,0.0
50849.0,STARLINK-3311,PAYLOAD,2024-01-03 17:28:17,15.08839162,0.0001297,53.2167,152.3292,87.6551,272.4589,6.4014e-05,7.31e-06,0.0,0 STARLINK-3311,1 50849U 22001AY  24003.72798569  .00000731  00000-0  64014-4 0  9993,2 50849  53.2167 152.3292 0001297  87.6551 272.4589 15.08839162110100,6917.883,95.438,540.645,538.851,0.0
50849.0,STARLINK-3311,PAYLOAD,2024-01-04 14:08:18,15.08840454,0.0001552,53.2175,148.4644,71.132,288.984,4.4048e-05,4.13e-06,0.0,0 STARLINK-3311,1 50849U 22001AY  24004.58910744  .00000413  00000-0  44048-4 0  9991,2 50849  53.2175 148.4644 0001552  71.1320 288.9840 15.08840454110234,6917.879,95.438,540.818,538.67,0.0
50849.0,STARLINK-3311,PAYLOAD,2024-01-04 18:54:27,15.08845132,0.0001572,53.2177,147.5718,71.856,288.2603,7.2303e-05,8.63e-06,0.0,0 STARLINK-3311,1 50849U 22001AY  24004.78782331  .00000863  00000-0  72303-4 0  9996,2 50849  53.2177 147.5718 0001572  71.8560 288.2603 15.08845132111467,6917.865,95.437,540.817,538.642,0.0
50849.0,STARLINK-3311,PAYLOAD,2024-01-05 09:12:56,15.08837836,0.0001334,53.218,144.8892,105.5664,254.5475,-3.8602e-05,-9.02e-06,0.0,0 STARLINK-3311,1 50849U 22001AY  24005.38399020 -.00000902  00000-0 -38602-4 0  9992,2 50849  53.2180 144.8892 0001334 105.5664 254.5475 15.08837836111555,6917.887,95.438,540.675,538.829,0.0
